<?xml version="1.0" encoding="utf-8" ?>
<kml xmlns="http://www.opengis.net/kml/2.2">
    <Document id="doc">
        <Folder>
            <Placemark>
                <Style>
                    <LineStyle>
                        <color>ffff0000</color>
                        <width>10</width>
                    </LineStyle>
                    <PolyStyle>
                        <fill>0</fill>
                    </PolyStyle>
                </Style>
                <LineString>
                    <coordinates>49.141162,55.7725396 49.1398412,55.7732208 49.1397495,55.7733517
                        49.1392369,55.7735861 49.1391588,55.7735399 49.1283303,55.7780882
                        49.1286462,55.7783888 49.1287809,55.7785588 49.1287428,55.7788413
                        49.1289037,55.7790977 49.1297674,55.7797645 49.1303956,55.7802362
                        49.130615,55.7803377 49.1312647,55.7807309 49.1339677,55.7793723
                        49.1355127,55.7786362 49.1363763,55.7792184 49.1367304,55.7794929
                        49.1371333,55.7797746 49.1364038,55.7801245 49.1355556,55.7804432
                        49.1344076,55.7809802 49.1329753,55.7815624 49.1310924,55.7824403
                        49.1299873,55.7828867 49.1295474,55.7831251 49.1289144,55.7826545
                        49.1282063,55.782214 49.1277973,55.7824064 49.1274097,55.7825987
                        49.1266734,55.7829629 49.1263862,55.7829188 49.1254179,55.7824558
                        49.1238059,55.7833321 49.1238917,55.7833864 49.123889,55.7835523
                        49.1236852,55.7836729 49.1233741,55.7836639 49.1232829,55.7836021
                        49.122615,55.783958 49.1210325,55.783949 49.1207267,55.7839324
                        49.119855,55.7844753 49.1199408,55.784599 49.120091,55.7849384
                        49.1201138,55.7851065 49.1199489,55.7850779 49.1194956,55.7849406
                        49.1192676,55.78478 49.1190007,55.784596 49.11603,55.7824339
                        49.1180202,55.7807476 49.1185835,55.780286 49.1182704,55.7801798
                        49.1182087,55.7802462 49.116822,55.7800275 49.118265,55.7790908
                        49.1183509,55.7790033 49.1152824,55.778237 49.1160334,55.7773802
                        49.115776,55.7773077 49.1150587,55.7781397 49.1135299,55.7795818
                        49.1132869,55.7797437 49.1130375,55.7800016 49.112949,55.7800816
                        49.1128471,55.7800997 49.1127478,55.7800921 49.1126834,55.780059
                        49.1126164,55.7800122 49.1121286,55.7802547 49.112547,55.7805383
                        49.1124531,55.7806604 49.1119087,55.7811929 49.1116565,55.7813151
                        49.1116828,55.7813376 49.1117158,55.7813784 49.1117185,55.7814342
                        49.1116515,55.7815156 49.1118768,55.781573 49.1119465,55.7815549
                        49.1120431,55.7815956 49.1143659,55.7833633 49.1146373,55.7835885
                        49.1166785,55.7852325 49.1168394,55.7853441 49.1171581,55.785592
                        49.117244,55.7857413 49.1139506,55.7879674 49.1149699,55.7886913
                        49.1129368,55.7896896 49.1127414,55.7897637 49.1132483,55.7901196
                        49.1143185,55.7909038 49.1122458,55.7919761 49.1123048,55.7921359
                        49.1118891,55.7921073 49.110548,55.7929125 49.1111997,55.7934523
                        49.1130344,55.7927798 49.113898,55.7934101 49.1147802,55.7940985
                        49.1150511,55.794011 49.1158034,55.7946443 49.1182818,55.7942433
                        49.118483,55.7946594 49.1185914,55.7946651 49.1186826,55.7946877
                        49.1187577,55.7947239 49.118806,55.7947465 49.1188757,55.794742
                        49.1189669,55.7947314 49.1213514,55.7943153 49.1214828,55.7948732
                        49.1217828,55.7948183 49.1220024,55.7946641 49.1226167,55.7943097
                        49.1225335,55.7942223 49.1225147,55.7941529 49.1225657,55.7940685
                        49.1226998,55.7940127 49.1228232,55.7940082 49.1230297,55.7940881
                        49.1231826,55.7941665 49.1232819,55.7942374 49.1234026,55.794364
                        49.1234777,55.7945661 49.1235259,55.794738 49.1238612,55.7946927
                        49.1239202,55.794839 49.1242233,55.7948706 49.1247061,55.7948254
                        49.1250065,55.7947319 49.124926,55.7945359 49.1248804,55.7943716
                        49.1248107,55.7940293 49.1247544,55.7934578 49.1246498,55.7931773
                        49.1245589,55.7929903 49.1242236,55.7929405 49.1239232,55.7932994
                        49.1234592,55.7933582 49.1233707,55.7932149 49.1232661,55.7932285
                        49.1232259,55.7931531 49.12325,55.7930521 49.1232208,55.7927086
                        49.1231926,55.7926204 49.1233428,55.7925435 49.123375,55.7924923
                        49.123324,55.7924365 49.1230895,55.7922106 49.1229219,55.7920885
                        49.1226047,55.7918388 49.1224599,55.7918087 49.1222534,55.791863
                        49.1216713,55.7913156 49.1199708,55.7919896 49.1197147,55.7918538
                        49.1178245,55.7905917 49.116684,55.7897864 49.1199134,55.7881637
                    </coordinates>
                </LineString>
            </Placemark>
        </Folder>
    </Document>
</kml>