<?xml version="1.0" encoding="UTF-8"?>
<kml xmlns="http://www.opengis.net/kml/2.2">
    <Document>
        <Placemark>
            <LineStyle>
                <color>ffff0000</color>
                <width>10</width>
            </LineStyle>
            <LineString>
                <coordinates>
                    40.9794269,57.0172738 40.9790889,57.01664 40.9786812,57.016459 40.9781126,57.0164415 40.977442,57.0164327 40.9728769,57.0165378 40.9718308,57.0165261 40.970066,57.0163743 40.969905,57.0160735 40.9695579,57.0160095 40.9688552,57.0151334 40.9687801,57.0148559 40.9689089,57.0146778 40.9696644,57.0143814 40.970217,57.0144369 40.9706944,57.0144749 40.9716654,57.0121121 40.972588,57.0106254 40.9747284,57.0107656 40.9747338,57.0107189 40.9726095,57.0105582 40.9724486,57.0104239 40.9724056,57.0102019 40.9724978,57.0098192 40.9726024,57.0093964 40.9727472,57.0092869 40.9730331,57.0079392 40.972325,57.0078983 40.9724645,57.0072673 40.9707586,57.0070073 40.9703388,57.0070424 40.9703879,57.0066928 40.9705287,57.005945 40.970607,57.005906 40.9716719,57.0059717 40.9728963,57.0060499 40.9733442,57.0060718 40.9733549,57.0059469 40.973418,57.0056818 40.9734998,57.0053116 40.9736674,57.0046733 40.9737559,57.0044732 40.9739021,57.0044206 40.9736218,57.0043877 40.9737023,57.0035785 40.9737734,57.0033988 40.973819,57.0027831 40.974,57.0027766 40.974146,57.0024933 40.9742503,57.0014359 40.9739888,57.0014183 40.9739821,57.0015009 40.973911,57.0015009 40.9739405,57.0007873 40.9741082,57.0006872 40.9742919,57.0005273 40.9748402,57.0002946 40.9747077,56.9998569 40.974131,56.9994683 40.9739808,56.9994493 40.9738682,56.9994317 40.973844,56.9993631 40.9737609,56.9988664 40.9737958,56.9987612 40.973887,56.9986779 40.9750349,56.9981389 40.9753166,56.997984 40.9759576,56.9976582 40.9755285,56.997442 40.9766845,56.9967656 40.9783046,56.9957108 40.9787418,56.9958963 40.9790207,56.9958145 40.9798656,56.9962309 40.9799782,56.9962528 40.9802679,56.9966414 40.9803108,56.9966297 40.9800641,56.9963039 40.9800078,56.9962382 40.9799085,56.9961374 40.9791468,56.9957531 40.9797422,56.9955018 40.9801741,56.9955632 40.9805603,56.9957283 40.9808422,56.9958121 40.9813867,56.996078 40.9811614,56.9962262 40.9814792,56.9964301 40.9810648,56.9966616 40.9810394,56.9967332 40.9810568,56.996788 40.9811158,56.9968676 40.9813411,56.9970291 40.9819527,56.9974016 40.9835419,56.9964717 40.9838758,56.9963366 40.9843103,56.9962664 40.9844645,56.9963249 40.9845222,56.9963775 40.9842406,56.9964783 40.985571,56.9973022 40.9855884,56.9973563 40.9858311,56.9974827 40.9838852,56.9984476 40.9842285,56.998712 40.9844377,56.9988559 40.9855401,56.9994994 40.9867873,57.000251 40.9867551,57.0002635 40.9864842,57.0001013 40.986098,57.0002854 40.9863689,57.0004782 40.9878119,57.0016337 40.988622,57.0023173 40.989263,57.0028359 40.9904177,57.0038394 40.9906537,57.0040833 40.9907476,57.004263 40.9909568,57.0052606 40.990835,57.0054334 40.9907867,57.0058629 40.990599,57.0060191 40.9905668,57.0062506 40.990599,57.0064887 40.990556,57.0067151 40.9904599,57.0069843 40.9895225,57.0082696 40.989265,57.0084493 40.9885327,57.0094701 40.9884362,57.0096848 40.9883611,57.0098981 40.9889404,57.0100346 40.988408,57.0106823 40.9884429,57.0106903 40.9889807,57.0100346 40.9889968,57.0099134 40.9900643,57.0085384 40.9908157,57.0075469 40.9908345,57.0074841 40.9908962,57.0073556 40.9912368,57.0066545 40.9914809,57.0065676 40.9915493,57.006328 40.9914031,57.0061798 40.9914433,57.0056876 40.9913843,57.0052399 40.9913334,57.0049383 40.9906964,57.0049127 40.9902551,57.0049405 40.9893727,57.0050252 40.9891326,57.0050077 40.9879846,57.0048499 40.9810015,57.0035645 40.98063,57.0036858 40.978562,57.0033038 40.9781785,57.003222 40.9778606,57.0031161 40.9772102,57.0029926 40.9770251,57.0029488 40.9769473,57.0028743 40.9769085,57.0028181 40.9766523,57.0027648 40.9763371,57.0028217 40.975625,57.0026735 40.9756036,57.0026056 40.9755593,57.0025486 40.9754239,57.0025048 40.9752643,57.0024967 40.9751717,57.0024982 40.9750483,57.0025909 40.9746366,57.002569</coordinates>
            </LineString>
        </Placemark>
    </Document>
</kml>